LANDSAT 9               
1 49260U 21088A   24285.22267276  .00010812  00000+0  24057-2 0  9996
2 49260  98.2205 353.3672 0001477  78.3602 281.7762 14.57113992161589
